{
"type": "FeatureCollection",
"crs": { "type": "name", "properties": { "name": "urn:ogc:def:crs:EPSG::6346" } },
"features": [
{ "type": "Feature", "properties": { "name": "NPA=1_UnderGroundBox", "Layer": "NonPlantable_Layers" }, "geometry": { "type": "Polygon", "coordinates": [ [ [ 466044.828105926513672, 3174959.267288684844971, -4.798313617706299 ], [ 466044.734312057495117, 3174958.901651382446289, -4.738584280014038 ], [ 466044.753305435180664, 3174958.876115322113037, -4.721848726272583 ], [ 466045.206178665161133, 3174958.924424171447754, -4.513086318969727 ], [ 466045.240234375, 3174959.250673770904541, -4.590794444084167 ], [ 466044.828105926513672, 3174959.267288684844971, -4.798313617706299 ] ] ] } },
{ "type": "Feature", "properties": { "name": "NPA=2_Tree", "Layer": "NonPlantable_Layers" }, "geometry": { "type": "Polygon", "coordinates": [ [ [ 466049.143299102783203, 3174958.951952934265137, -4.629358768463135 ], [ 466049.117658615112305, 3174958.638311386108398, -4.615373253822327 ], [ 466048.919856071472168, 3174958.541547775268555, -4.600542068481445 ], [ 466048.681986808776855, 3174958.591729164123535, -4.589379072189331 ], [ 466048.606939315795898, 3174958.90242862701416, -4.597670555114746 ], [ 466048.636229515075684, 3174958.718539237976074, -4.591925382614136 ], [ 466048.680893898010254, 3174958.592630863189697, -4.589354634284973 ], [ 466048.600508689880371, 3174958.920446395874023, -4.598036170005798 ], [ 466048.724067687988281, 3174959.047299861907959, -4.609961271286011 ], [ 466048.919063568115234, 3174959.107115745544434, -4.623156666755676 ], [ 466049.143299102783203, 3174958.951952934265137, -4.629358768463135 ] ] ] } },
{ "type": "Feature", "properties": { "name": "NPA=3_Tree", "Layer": "NonPlantable_Layers" }, "geometry": { "type": "Polygon", "coordinates": [ [ [ 466046.361034393310547, 3174959.450589656829834, -4.479587912559509 ], [ 466046.2158203125, 3174959.392145156860352, -4.229056000709534 ], [ 466046.109853744506836, 3174959.332159996032715, -4.01619815826416 ], [ 466046.236734390258789, 3174959.161608695983887, -3.851114630699158 ], [ 466046.590799331665039, 3174959.13040018081665, -4.160989761352539 ], [ 466046.72386360168457, 3174959.235331058502197, -4.479577779769897 ], [ 466046.724861145019531, 3174959.227156639099121, -4.466439723968506 ], [ 466046.665687561035156, 3174959.322776317596436, -4.571289777755737 ], [ 466046.512420654296875, 3174959.402804374694824, -4.552405476570129 ], [ 466046.361034393310547, 3174959.450589656829834, -4.479587912559509 ] ] ] } },
{ "type": "Feature", "properties": { "name": "NPA=4_Tree", "Layer": "NonPlantable_Layers" }, "geometry": { "type": "Polygon", "coordinates": [ [ [ 466048.428688049316406, 3174956.618484258651733, -4.394921183586121 ], [ 466048.349673271179199, 3174956.727240800857544, -4.390749216079712 ], [ 466048.189342498779297, 3174956.744384288787842, -4.384320974349976 ], [ 466048.072863578796387, 3174956.626415491104126, -4.380956530570984 ], [ 466048.14021110534668, 3174956.450067520141602, -4.385349988937378 ], [ 466048.139005661010742, 3174956.45401668548584, -4.385263442993164 ], [ 466048.25258731842041, 3174956.422896862030029, -4.390007138252258 ], [ 466048.388829231262207, 3174956.478456497192383, -4.39476752281189 ], [ 466048.428688049316406, 3174956.618484258651733, -4.394921183586121 ] ] ] } },
{ "type": "Feature", "properties": { "name": "NPA=5_Rock", "Layer": "NonPlantable_Layers" }, "geometry": { "type": "Polygon", "coordinates": [ [ [ 466039.741386413574219, 3174955.423258781433105, -4.196239590644836 ], [ 466039.558795928955078, 3174955.333478450775146, -4.144245147705078 ], [ 466039.434671401977539, 3174955.086155414581299, -4.125367045402527 ], [ 466039.463464736938477, 3174954.947675466537476, -4.147059440612793 ], [ 466039.561954498291016, 3174954.792260527610779, -4.193125486373901 ], [ 466039.718315124511719, 3174954.63789963722229, -4.258092761039734 ], [ 466039.949789047241211, 3174954.678193330764771, -4.330506443977356 ], [ 466040.109275817871094, 3174954.85832953453064, -4.366930723190308 ], [ 466040.040170669555664, 3174955.157896041870117, -4.317766785621643 ], [ 466040.082695007324219, 3174955.24376916885376, -4.324133396148682 ], [ 466039.854551315307617, 3174955.360836029052734, -4.238901853561401 ], [ 466039.741386413574219, 3174955.423258781433105, -4.196239590644836 ] ] ] } },
{ "type": "Feature", "properties": { "name": "NPA=6_TireStop", "Layer": "NonPlantable_Layers" }, "geometry": { "type": "Polygon", "coordinates": [ [ [ 466041.978977203369141, 3174952.265631496906281, -4.392373323440552 ], [ 466043.776163101196289, 3174952.336968719959259, -4.386008262634277 ], [ 466043.768877029418945, 3174952.622266262769699, -4.48426878452301 ], [ 466041.979347229003906, 3174952.569650143384933, -4.496941804885864 ], [ 466041.978977203369141, 3174952.265631496906281, -4.392373323440552 ] ] ] } },
{ "type": "Feature", "properties": { "name": "NPA=7_Tree", "Layer": "NonPlantable_Layers" }, "geometry": { "type": "Polygon", "coordinates": [ [ [ 466069.588670253753662, 3174929.988496780395508, -4.160765290260315 ], [ 466069.90773344039917, 3174929.596670150756836, -4.0593421459198 ], [ 466070.314769268035889, 3174929.818601608276367, -4.075722813606262 ], [ 466070.58378791809082, 3174930.351940155029297, -4.164636254310608 ], [ 466070.237026691436768, 3174930.507780075073242, -4.220336318016052 ], [ 466069.870020866394043, 3174930.491487503051758, -4.242688298225403 ], [ 466069.588670253753662, 3174929.988496780395508, -4.160765290260315 ] ] ] } },
{ "type": "Feature", "properties": { "name": "NPA=8_Tree", "Layer": "NonPlantable_Layers" }, "geometry": { "type": "Polygon", "coordinates": [ [ [ 466057.521711826324463, 3174928.932821273803711, -4.110106110572815 ], [ 466057.679129600524902, 3174928.965972900390625, -4.112546801567078 ], [ 466057.705555438995361, 3174929.233884811401367, -4.124121189117432 ], [ 466057.445769786834717, 3174929.376670837402344, -4.128498196601868 ], [ 466057.284618854522705, 3174929.253210067749023, -4.122189879417419 ], [ 466057.324073791503906, 3174929.011692047119141, -4.112169742584229 ], [ 466057.521711826324463, 3174928.932821273803711, -4.110106110572815 ] ] ] } },
{ "type": "Feature", "properties": { "name": "NPA=9_Tree", "Layer": "NonPlantable_Layers" }, "geometry": { "type": "Polygon", "coordinates": [ [ [ 466063.20201513171196, 3174950.417408227920532, -4.450167775154114 ], [ 466063.021260898560286, 3174950.333000183105469, -4.43444037437439 ], [ 466063.022352021187544, 3174949.902764797210693, -4.466395616531372 ], [ 466063.176630333065987, 3174949.89744234085083, -4.485541820526123 ], [ 466063.301841795444489, 3174949.978217840194702, -4.494786739349365 ], [ 466063.357312202453613, 3174950.039926767349243, -4.496964812278748 ], [ 466063.370872318744659, 3174950.205860614776611, -4.486339688301086 ], [ 466063.20201513171196, 3174950.417408227920532, -4.450167775154114 ] ] ] } },
{ "type": "Feature", "properties": { "name": "NPA=10_TireStops", "Layer": "NonPlantable_Layers" }, "geometry": { "type": "Polygon", "coordinates": [ [ [ 466077.184585571289062, 3174932.643651962280273, -4.33204984664917 ], [ 466076.601908683776855, 3174945.592744827270508, -4.491460204124451 ], [ 466076.346512794494629, 3174945.504125118255615, -4.504726409912109 ], [ 466076.828003883361816, 3174932.692361831665039, -4.352265357971191 ], [ 466077.184585571289062, 3174932.643651962280273, -4.33204984664917 ] ] ] } },
{ "type": "Feature", "properties": { "name": "NPA=11_TireStop", "Layer": "NonPlantable_Layers" }, "geometry": { "type": "Polygon", "coordinates": [ [ [ 466075.838438987731934, 3174954.514561414718628, -4.331057906150818 ], [ 466076.122039794921875, 3174954.514495491981506, -4.243128776550293 ], [ 466076.263373374938965, 3174956.550588607788086, -4.485619068145752 ], [ 466076.043880462646484, 3174956.57266092300415, -4.556768536567688 ], [ 466075.838438987731934, 3174954.514561414718628, -4.331057906150818 ] ] ] } },
{ "type": "Feature", "properties": { "name": "NPA=12_Tree", "Layer": "NonPlantable_Layers" }, "geometry": { "type": "Polygon", "coordinates": [ [ [ 466060.610642671585083, 3174951.219807267189026, -4.256005883216858 ], [ 466060.944651126861572, 3174951.243677020072937, -4.277729511260986 ], [ 466061.119929075241089, 3174951.345312476158142, -4.267006635665894 ], [ 466061.025516390800476, 3174951.711423993110657, -4.168298006057739 ], [ 466060.693470001220703, 3174951.781901478767395, -4.123313665390015 ], [ 466060.712791681289673, 3174951.74866509437561, -4.133164525032043 ], [ 466060.494505882263184, 3174951.587659955024719, -4.155066609382629 ], [ 466060.610642671585083, 3174951.219807267189026, -4.256005883216858 ] ] ] } },
{ "type": "Feature", "properties": { "name": "NPA=13_LightPole", "Layer": "NonPlantable_Layers" }, "geometry": { "type": "Polygon", "coordinates": [ [ [ 466074.778506278991699, 3174958.364443778991699, -4.640322208404541 ], [ 466074.936714172363281, 3174958.338053703308105, -4.601771473884583 ], [ 466074.966323852539062, 3174958.632524013519287, -4.67942225933075 ], [ 466074.796043395996094, 3174958.534073352813721, -4.684958696365356 ], [ 466074.778506278991699, 3174958.364443778991699, -4.640322208404541 ] ] ] } },
{ "type": "Feature", "properties": { "name": "NPA=14_Tree", "Layer": "NonPlantable_Layers" }, "geometry": { "type": "Polygon", "coordinates": [ [ [ 466063.585421144962311, 3174944.948489189147949, -4.010341167449951 ], [ 466063.384489446878433, 3174945.09138822555542, -3.985001146793365 ], [ 466063.09228253364563, 3174945.043526649475098, -3.968455076217651 ], [ 466062.95779836550355, 3174944.759227752685547, -3.981668591499329 ], [ 466063.096025235950947, 3174944.46455192565918, -4.014695763587952 ], [ 466063.481928139925003, 3174944.404541015625, -4.046333074569702 ], [ 466063.65275502204895, 3174944.602983474731445, -4.042468547821045 ], [ 466063.585421144962311, 3174944.948489189147949, -4.010341167449951 ] ] ] } },
{ "type": "Feature", "properties": { "name": "NPA=15_Tree", "Layer": "NonPlantable_Layers" }, "geometry": { "type": "Polygon", "coordinates": [ [ [ 466077.146531105041504, 3174944.410895347595215, -4.367981195449829 ], [ 466077.388985633850098, 3174944.256961822509766, -4.349706172943115 ], [ 466077.62840747833252, 3174944.343793869018555, -4.338949203491211 ], [ 466077.660275459289551, 3174944.80513858795166, -4.351244926452637 ], [ 466077.590793609619141, 3174944.96238899230957, -4.35993504524231 ], [ 466077.408184051513672, 3174945.01838207244873, -4.371869683265686 ], [ 466077.255769729614258, 3174945.092269420623779, -4.382659673690796 ], [ 466077.14185619354248, 3174945.007085800170898, -4.386438727378845 ], [ 466077.12468147277832, 3174944.877167701721191, -4.383435368537903 ], [ 466077.015450477600098, 3174944.581206321716309, -4.380519270896912 ], [ 466077.146531105041504, 3174944.410895347595215, -4.367981195449829 ] ] ] } },
{ "type": "Feature", "properties": { "name": "NPA=16_Tree", "Layer": "NonPlantable_Layers" }, "geometry": { "type": "Polygon", "coordinates": [ [ [ 466057.501252174377441, 3174958.509056568145752, -4.471005916595459 ], [ 466057.331863880157471, 3174958.454470634460449, -4.417104244232178 ], [ 466057.18655252456665, 3174958.321792602539062, -4.349784731864929 ], [ 466057.252329349517822, 3174958.10361909866333, -4.311942100524902 ], [ 466057.339568614959717, 3174958.00843620300293, -4.309429287910461 ], [ 466057.550947189331055, 3174958.014303207397461, -4.361408352851868 ], [ 466057.688324928283691, 3174958.031463623046875, -4.398467421531677 ], [ 466057.755057811737061, 3174958.230907917022705, -4.463393092155457 ], [ 466057.72498893737793, 3174958.304832935333252, -4.474354982376099 ], [ 466057.684611797332764, 3174958.469352245330811, -4.505096554756165 ], [ 466057.501252174377441, 3174958.509056568145752, -4.471005916595459 ] ] ] } },
{ "type": "Feature", "properties": { "name": "NPA=17_Tree", "Layer": "NonPlantable_Layers" }, "geometry": { "type": "Polygon", "coordinates": [ [ [ 466054.204429626464844, 3174958.503741264343262, -4.632815599441528 ], [ 466054.227609634399414, 3174958.339547634124756, -4.616092920303345 ], [ 466054.340412139892578, 3174958.461285591125488, -4.613162994384766 ], [ 466054.304288864135742, 3174958.535017013549805, -4.623704552650452 ], [ 466054.204429626464844, 3174958.503741264343262, -4.632815599441528 ] ] ] } },
{ "type": "Feature", "properties": { "name": "NPA=18_Sign", "Layer": "NonPlantable_Layers" }, "geometry": { "type": "Polygon", "coordinates": [ [ [ 466042.839601516723633, 3174952.152905106544495, -4.46264123916626 ], [ 466042.817165374755859, 3174952.017412304878235, -4.462261557579041 ], [ 466042.969898223876953, 3174952.020188868045807, -4.46776270866394 ], [ 466042.952648162841797, 3174952.146818816661835, -4.466738700866699 ], [ 466042.839601516723633, 3174952.152905106544495, -4.46264123916626 ] ] ] } },
{ "type": "Feature", "properties": { "name": "NPA=1_PalmTree", "Layer": "NonPlantable_Layers" }, "geometry": { "type": "Point", "coordinates": [ 466037.824026107788086, 3174959.36848258972168, -4.056372404098511 ] } },
{ "type": "Feature", "properties": { "name": "NPA=2_Post", "Layer": "NonPlantable_Layers" }, "geometry": { "type": "Point", "coordinates": [ 466038.249366760253906, 3174959.054731369018555, -4.10722541809082 ] } },
{ "type": "Feature", "properties": { "name": "NPA=3_Tree", "Layer": "NonPlantable_Layers" }, "geometry": { "type": "Point", "coordinates": [ 466039.682704925537109, 3174958.121007442474365, -4.098438858985901 ] } },
{ "type": "Feature", "properties": { "name": "NPA=4_PalmTree", "Layer": "NonPlantable_Layers" }, "geometry": { "type": "Point", "coordinates": [ 466061.056859374046326, 3174948.308146, -3.811997711658478 ] } },
{ "type": "Feature", "properties": { "name": "NPA=5_PalmTree", "Layer": "NonPlantable_Layers" }, "geometry": { "type": "Point", "coordinates": [ 466053.263530731201172, 3174957.530893325805664, -4.301439762115479 ] } },
{ "type": "Feature", "properties": { "name": "NPA=6_PalmTree", "Layer": "NonPlantable_Layers" }, "geometry": { "type": "Point", "coordinates": [ 466055.071516990661621, 3174958.47303295135498, -4.18795645236969 ] } },
{ "type": "Feature", "properties": { "name": "NPA=7_PalmTree", "Layer": "NonPlantable_Layers" }, "geometry": { "type": "Point", "coordinates": [ 466059.374444961547852, 3174957.569135665893555, -4.428443193435669 ] } },
{ "type": "Feature", "properties": { "name": "NPA=8_PalmTree", "Layer": "NonPlantable_Layers" }, "geometry": { "type": "Point", "coordinates": [ 466060.641042709350586, 3174958.689033508300781, -4.34977924823761 ] } },
{ "type": "Feature", "properties": { "name": "NPA=9_PalmTree", "Layer": "NonPlantable_Layers" }, "geometry": { "type": "Point", "coordinates": [ 466061.936814069747925, 3174957.399016380310059, -4.280340313911438 ] } },
{ "type": "Feature", "properties": { "name": "NPA=10_Sign", "Layer": "NonPlantable_Layers" }, "geometry": { "type": "Point", "coordinates": [ 466063.183042570948601, 3174957.761256694793701, -4.422915935516357 ] } },
{ "type": "Feature", "properties": { "name": "NPA=11_Sign", "Layer": "NonPlantable_Layers" }, "geometry": { "type": "Point", "coordinates": [ 466071.977447509765625, 3174959.340254783630371, -4.465762138366699 ] } },
{ "type": "Feature", "properties": { "name": "NPA=12_PowerPole", "Layer": "NonPlantable_Layers" }, "geometry": { "type": "Point", "coordinates": [ 466077.045867919921875, 3174959.857856273651123, -4.338870406150818 ] } },
{ "type": "Feature", "properties": { "name": "NPA=13_PalmTree", "Layer": "NonPlantable_Layers" }, "geometry": { "type": "Point", "coordinates": [ 466074.409772872924805, 3174953.253450483083725, -4.249564409255981 ] } },
{ "type": "Feature", "properties": { "name": "NPA=14_PalmTree", "Layer": "NonPlantable_Layers" }, "geometry": { "type": "Point", "coordinates": [ 466071.549758911132812, 3174953.473031312227249, -3.979655504226685 ] } },
{ "type": "Feature", "properties": { "name": "NPA=15_Sign", "Layer": "NonPlantable_Layers" }, "geometry": { "type": "Point", "coordinates": [ 466077.154110908508301, 3174940.404624938964844, -4.150798082351685 ] } },
{ "type": "Feature", "properties": { "name": "NPA=16_PalmTree", "Layer": "NonPlantable_Layers" }, "geometry": { "type": "Point", "coordinates": [ 466078.375911712646484, 3174936.536336898803711, -4.317421078681946 ] } },
{ "type": "Feature", "properties": { "name": "NPA=17_Sign", "Layer": "NonPlantable_Layers" }, "geometry": { "type": "Point", "coordinates": [ 466077.856128692626953, 3174932.487985610961914, -4.198267102241516 ] } },
{ "type": "Feature", "properties": { "name": "NPA=18_BirdofParadise", "Layer": "NonPlantable_Layers" }, "geometry": { "type": "Point", "coordinates": [ 466060.700097322463989, 3174941.968227386474609, -3.480855047702789 ] } },
{ "type": "Feature", "properties": { "name": "PA=1_SoilMoisture=Moderate_Light=2-4_pH=7.6-9.0_N=3-5_P=6-9_K=8-10_Drought=No_Flood=Yes_Wind=No", "Layer": "Plantable_Layers" }, "geometry": { "type": "Polygon", "coordinates": [ [ [ 466050.320334434509277, 3174959.872959613800049, -4.79674232006073 ], [ 466045.612802505493164, 3174959.818823337554932, -4.619857311248779 ], [ 466045.267356872558594, 3174958.224631309509277, -4.537716627120972 ], [ 466045.760290145874023, 3174957.416850566864014, -4.52086067199707 ], [ 466046.368438720703125, 3174956.536078453063965, -4.505101799964905 ], [ 466046.84080696105957, 3174956.167687654495239, -4.506592988967896 ], [ 466047.234617233276367, 3174955.878348112106323, -4.508609652519226 ], [ 466048.005917549133301, 3174955.798425674438477, -4.533729553222656 ], [ 466048.444036483764648, 3174955.809794902801514, -4.550467133522034 ], [ 466048.874289512634277, 3174955.820960283279419, -4.566904187202454 ], [ 466050.35772705078125, 3174955.859456300735474, -4.623576521873474 ], [ 466050.320334434509277, 3174959.872959613800049, -4.79674232006073 ] ] ] } },
{ "type": "Feature", "properties": { "name": "PA=7_SoilMoisture=Moderate_Light=8-10_pH=6.9-7.8_N=3-5_P=25-27_K=18-20_Drought=No_Flood=Yes_Wind=No", "Layer": "Plantable_Layers" }, "geometry": { "type": "Polygon", "coordinates": [ [ [ 466061.242188453674316, 3174928.862730026245117, -4.155680418014526 ], [ 466061.152497053146362, 3174927.547273635864258, -4.029712557792664 ], [ 466068.378139972686768, 3174929.287410736083984, -4.059960246086121 ], [ 466071.291440963745117, 3174928.26446533203125, -3.904756963253021 ], [ 466072.704435348510742, 3174929.161846160888672, -3.964747905731201 ], [ 466073.50101375579834, 3174930.042572021484375, -4.034951448440552 ], [ 466074.914278030395508, 3174930.197635650634766, -4.022881865501404 ], [ 466078.789212226867676, 3174931.463693618774414, -4.071413636207581 ], [ 466078.275269508361816, 3174932.784666061401367, -4.209500551223755 ], [ 466078.302787780761719, 3174932.797477722167969, -4.210216283798218 ], [ 466077.102449417114258, 3174932.735115051269531, -4.227198004722595 ], [ 466077.144598960876465, 3174932.736896514892578, -4.226562023162842 ], [ 466072.168550491333008, 3174932.648256301879883, -4.313451290130615 ], [ 466071.057085037231445, 3174932.540426254272461, -4.324313879013062 ], [ 466064.085586428642273, 3174932.504703521728516, -4.454633474349976 ], [ 466063.248257055878639, 3174932.266958236694336, -4.447624802589417 ], [ 466062.667591601610184, 3174931.958070755004883, -4.428785085678101 ], [ 466062.136876821517944, 3174931.609964370727539, -4.405179738998413 ], [ 466061.650616407394409, 3174931.093915939331055, -4.364419460296631 ], [ 466061.292313575744629, 3174930.357265472412109, -4.299790143966675 ], [ 466061.217819094657898, 3174929.838150024414062, -4.250830173492432 ], [ 466061.242188453674316, 3174928.862730026245117, -4.155680418014526 ] ] ] } },
{ "type": "Feature", "properties": { "name": "PA=3_SoilMoisture=Moderate_Light=0-6_pH=7.8-8.8_N=2-6_P=6-9_K=8-10_Drought=No_Flood=Yes_Wind=No", "Layer": "Plantable_Layers" }, "geometry": { "type": "Polygon", "coordinates": [ [ [ 466070.556887626647949, 3174958.067503452301025, -4.644982814788818 ], [ 466070.680997371673584, 3174960.001412868499756, -4.741053938865662 ], [ 466070.684977054595947, 3174959.998372077941895, -4.740844488143921 ], [ 466074.942754745483398, 3174960.126287937164307, -4.687767386436462 ], [ 466075.949316024780273, 3174960.036873340606689, -4.66916811466217 ], [ 466075.96776008605957, 3174960.02170991897583, -4.668143272399902 ], [ 466075.944424629211426, 3174957.172451972961426, -4.524369478225708 ], [ 466071.091020584106445, 3174957.116477966308594, -4.589415073394775 ], [ 466070.556887626647949, 3174958.067503452301025, -4.644982814788818 ] ] ] } },
{ "type": "Feature", "properties": { "name": "PA=4_SoilMoisture=Moderate_Light=0-4_pH=7.6-9.0_N=2-6_P=6-9_K=8-10_Drought=No_Flood=Yes_Wind=No", "Layer": "Plantable_Layers" }, "geometry": { "type": "Polygon", "coordinates": [ [ [ 466075.847007751464844, 3174954.196462988853455, -4.392130732536316 ], [ 466077.364982604980469, 3174954.674166798591614, -4.317797422409058 ], [ 466077.447345733642578, 3174958.220996379852295, -4.485285401344299 ], [ 466077.496114730834961, 3174958.700351238250732, -4.505501270294189 ], [ 466077.637410163879395, 3174960.089142799377441, -4.56407105922699 ], [ 466075.96776008605957, 3174960.02170991897583, -4.668143272399902 ], [ 466075.642727851867676, 3174954.327946543693542, -4.411670923233032 ], [ 466075.847007751464844, 3174954.196462988853455, -4.392130732536316 ] ] ] } },
{ "type": "Feature", "properties": { "name": "PA=5_SoilMoisture=Moderate_Light=0-2_pH=7.6-9.0_N=2-6_P=6-9_K=8-10_K=Low_Drought=No_Flood=Yes_Wind=No", "Layer": "Plantable_Layers" }, "geometry": { "type": "Polygon", "coordinates": [ [ [ 466070.502717971801758, 3174953.395100235939026, -4.592233300209045 ], [ 466070.455265998840332, 3174953.098280772566795, -4.614278554916382 ], [ 466070.428654670715332, 3174952.706305176019669, -4.642419338226318 ], [ 466070.716361522674561, 3174952.306252598762512, -4.662653923034668 ], [ 466071.235165596008301, 3174951.976501703262329, -4.671741485595703 ], [ 466075.402653694152832, 3174951.884470701217651, -4.565859794616699 ], [ 466076.315805435180664, 3174951.86430549621582, -4.542659521102905 ], [ 466078.081789970397949, 3174951.633953094482422, -4.511179685592651 ], [ 466076.69322395324707, 3174954.158228993415833, -4.37199878692627 ], [ 466077.364982604980469, 3174954.674166798591614, -4.317797422409058 ], [ 466075.847007751464844, 3174954.196462988853455, -4.392130732536316 ], [ 466071.281329154968262, 3174954.122711896896362, -4.520342946052551 ], [ 466070.699362754821777, 3174953.672306597232819, -4.56753933429718 ], [ 466070.502717971801758, 3174953.395100235939026, -4.592233300209045 ] ] ] } },
{ "type": "Feature", "properties": { "name": "PA=6_SoilMoisture=Moderate_Light=2-5_pH=7.2-8.8_N=8-12_P=6-8_K=14-18_Drought=No_Flood=Yes_Wind=No", "Layer": "Plantable_Layers" }, "geometry": { "type": "Polygon", "coordinates": [ [ [ 466076.67811393737793, 3174943.502717018127441, -4.404476761817932 ], [ 466077.144598960876465, 3174932.736896514892578, -4.226562023162842 ], [ 466077.102449417114258, 3174932.735115051269531, -4.227198004722595 ], [ 466078.275269508361816, 3174932.784666061401367, -4.209500551223755 ], [ 466078.081789970397949, 3174951.633953094482422, -4.511179685592651 ], [ 466076.315805435180664, 3174951.86430549621582, -4.542659521102905 ], [ 466076.67811393737793, 3174943.502717018127441, -4.404476761817932 ] ] ] } },
{ "type": "Feature", "properties": { "name": "PA=8_SoilMoisture=Moderate_Light=0-2_pH=7.6-8.6_N=2-5_P=5-7_K=8-10_Drought=No_Flood=Yes_Wind=No", "Layer": "Plantable_Layers" }, "geometry": { "type": "Polygon", "coordinates": [ [ [ 466039.807893753051758, 3174951.162169337272644, -4.392948746681213 ], [ 466040.389507293701172, 3174952.561186969280243, -4.479140877723694 ], [ 466040.174793243408203, 3174959.736406326293945, -4.7017982006073 ], [ 466038.61052131652832, 3174959.725496292114258, -4.594107985496521 ], [ 466038.779624938964844, 3174954.701302409172058, -4.439487099647522 ], [ 466038.765539169311523, 3174953.035727847367525, -4.383415699005127 ], [ 466038.568883895874023, 3174952.444095253944397, -4.350348591804504 ], [ 466038.750782012939453, 3174951.796450853347778, -4.341402173042297 ], [ 466039.807895660400391, 3174951.162177562713623, -4.392949223518372 ], [ 466039.808006286621094, 3174951.162575602531433, -4.392969965934753 ], [ 466039.807893753051758, 3174951.162169337272644, -4.392948746681213 ] ] ] } },
{ "type": "Feature", "properties": { "name": "PA=9_SoilMoisture=Moderate_Light=0-7_pH=6.0-7.0_N=2-4_P=4-6_K=9-11_Drought=No_Flood=Yes_Wind=No", "Layer": "Plantable_Layers" }, "geometry": { "type": "Polygon", "coordinates": [ [ [ 466040.928424835205078, 3174951.293571710586548, -3.97041779756546 ], [ 466041.053247451782227, 3174951.706263661384583, -4.026020646095276 ], [ 466041.200798034667969, 3174952.194101095199585, -4.091747879981995 ], [ 466041.348005294799805, 3174952.680805176496506, -4.157322406768799 ], [ 466041.348241806030273, 3174952.6822609603405, -4.157509565353394 ], [ 466044.917402267456055, 3174952.722786605358124, -4.320281624794006 ], [ 466045.121387481689453, 3174952.662137120962143, -4.321943163871765 ], [ 466045.838340759277344, 3174952.242142558097839, -4.302683591842651 ], [ 466047.11467170715332, 3174952.496930360794067, -4.390051960945129 ], [ 466047.248861312866211, 3174951.342473149299622, -4.255887627601624 ], [ 466048.255220413208008, 3174951.229652881622314, -4.286704897880554 ], [ 466048.324650764465332, 3174950.118591547012329, -4.154942750930786 ], [ 466040.98335075378418, 3174950.322974681854248, -3.855060338973999 ], [ 466040.868913650512695, 3174950.582383871078491, -3.881479620933533 ], [ 466040.854270935058594, 3174950.914636373519897, -3.921152532100677 ], [ 466040.928424835205078, 3174951.293571710586548, -3.97041779756546 ] ] ] } },
{ "type": "Feature", "properties": { "name": "PA=10_SoilMoisture=Moderate_Light=0-7_pH=6.0-7.0_N=2-4_P=4-6_K=9-11_Drought=No_Flood=Yes_Wind=No", "Layer": "Plantable_Layers" }, "geometry": { "type": "Polygon", "coordinates": [ [ [ 466052.378602981567383, 3174952.71793606877327, -4.276992559432983 ], [ 466052.370777130126953, 3174950.200987100601196, -4.211413025856018 ], [ 466052.954649925231934, 3174950.144903421401978, -4.22413957118988 ], [ 466059.412153720855713, 3174950.048511505126953, -4.378503203392029 ], [ 466065.412311315536499, 3174949.958946466445923, -4.521934032440186 ], [ 466065.620675325393677, 3174952.857816487550735, -4.602307319641113 ], [ 466052.378602981567383, 3174952.71793606877327, -4.276992559432983 ] ] ] } },
{ "type": "Feature", "properties": { "name": "PA=11_SoilMoisture=Moderate_Light=2-4_pH=7.5-8.5_N=9-11_P=6-8_K=15-17_Drought=No_Flood=Yes_Wind=No", "Layer": "Plantable_Layers" }, "geometry": { "type": "Polygon", "coordinates": [ [ [ 466064.770537376403809, 3174941.236237525939941, -4.447878360748291 ], [ 466065.003107070922852, 3174941.282865524291992, -4.453904151916504 ], [ 466065.218117713928223, 3174941.388895988464355, -4.460085988044739 ], [ 466065.475585222244263, 3174941.671441078186035, -4.468999147415161 ], [ 466065.718475818634033, 3174941.889506340026855, -4.476936817169189 ], [ 466065.939191341400146, 3174942.145883560180664, -4.484715223312378 ], [ 466066.076407194137573, 3174942.458796501159668, -4.491041541099548 ], [ 466066.227684736251831, 3174942.85097599029541, -4.498474478721619 ], [ 466066.205549478530884, 3174943.350658416748047, -4.502795696258545 ], [ 466066.181650400161743, 3174943.871050834655762, -4.507275819778442 ], [ 466066.294332504272461, 3174944.410799026489258, -4.515216708183289 ], [ 466066.320865392684937, 3174944.921792030334473, -4.520813941955566 ], [ 466066.462745428085327, 3174945.365004062652588, -4.528517246246338 ], [ 466066.516067981719971, 3174945.689981937408447, -4.532950401306152 ], [ 466066.524639844894409, 3174946.032720565795898, -4.536483645439148 ], [ 466066.468537569046021, 3174946.386275291442871, -4.538572072982788 ], [ 466066.405938148498535, 3174946.780776023864746, -4.540902495384216 ], [ 466066.258771419525146, 3174947.152407169342041, -4.540984272956848 ], [ 466066.03981614112854, 3174947.625784873962402, -4.54033362865448 ], [ 466065.845621109008789, 3174948.04563045501709, -4.539756655693054 ], [ 466065.254534721374512, 3174948.744717121124268, -4.532380223274231 ], [ 466064.616734862327576, 3174949.136083364486694, -4.520896553993225 ], [ 466064.120708465576172, 3174949.28314471244812, -4.510438084602356 ], [ 466063.471343964338303, 3174949.282911777496338, -4.494875073432922 ], [ 466059.75283408164978, 3174948.771398544311523, -4.400801539421082 ], [ 466059.752217769622803, 3174948.77192497253418, -4.400791883468628 ], [ 466058.93941593170166, 3174940.600333213806152, -4.301972389221191 ], [ 466059.466654062271118, 3174940.467387199401855, -4.313315749168396 ], [ 466059.962583065032959, 3174940.34233570098877, -4.323985576629639 ], [ 466060.918414354324341, 3174940.176259994506836, -4.345277667045593 ], [ 466061.522270083427429, 3174940.17597770690918, -4.359745264053345 ], [ 466062.118063986301422, 3174940.405733108520508, -4.376253128051758 ], [ 466062.863888263702393, 3174940.992068290710449, -4.399818420410156 ], [ 466064.198233485221863, 3174941.361296653747559, -4.435378432273865 ], [ 466064.420133948326111, 3174941.220935821533203, -4.439333081245422 ], [ 466064.770537376403809, 3174941.236237525939941, -4.447878360748291 ] ] ] } },
{ "type": "Feature", "properties": { "name": "PA=12_SoilMoisture=Moderate_Light=6-7_pH=6.9-7.8_N=3-5_P=25-27_K=18-20_Drought=No_Flood=Yes_Wind=No", "Layer": "Plantable_Layers" }, "geometry": { "type": "Polygon", "coordinates": [ [ [ 466060.770098447799683, 3174930.721284866333008, -4.357269763946533 ], [ 466057.051857948303223, 3174930.314689636230469, -4.317791223526001 ], [ 466056.857876777648926, 3174927.172155380249023, -4.22619366645813 ], [ 466060.503162145614624, 3174927.49247932434082, -4.262651681900024 ], [ 466060.767108678817749, 3174930.707012176513672, -4.35683798789978 ], [ 466060.770098447799683, 3174930.721284866333008, -4.357269763946533 ] ] ] } },
{ "type": "Feature", "properties": { "name": "PA=2_SoilMoisture=Moderate_Light=0-4_pH=7.8-8.8_N=3-5_P=6-9_K=8-10_Drought=No_Flood=Yes_Wind=No", "Layer": "Plantable_Layers" }, "geometry": { "type": "Polygon", "coordinates": [ [ [ 466064.155747413635254, 3174956.194802522659302, -4.488483309745789 ], [ 466064.674008011817932, 3174956.370573759078979, -4.50365936756134 ], [ 466065.212648868560791, 3174956.771413087844849, -4.540098667144775 ], [ 466065.638741731643677, 3174957.543747901916504, -4.612050890922546 ], [ 466065.668309450149536, 3174959.980321884155273, -4.842788815498352 ], [ 466052.195599555969238, 3174959.876745223999023, -4.871324181556702 ], [ 466052.38082218170166, 3174956.00968074798584, -4.504461407661438 ], [ 466061.452388048171997, 3174956.079560279846191, -4.485260725021362 ], [ 466064.155747413635254, 3174956.194802522659302, -4.488483309745789 ] ] ] } },
{ "type": "Feature", "properties": { "name": "Soil 2", "Layer": "Plantable_Layers" }, "geometry": { "type": "Point", "coordinates": [ 466064.902137279510498, 3174957.122428894042969, -4.673766493797302 ] } },
{ "type": "Feature", "properties": { "name": "Soil 3", "Layer": "Plantable_Layers" }, "geometry": { "type": "Point", "coordinates": [ 466063.436033338308334, 3174941.372053146362305, -4.427693486213684 ] } },
{ "type": "Feature", "properties": { "name": "Soil 4", "Layer": "Plantable_Layers" }, "geometry": { "type": "Point", "coordinates": [ 466067.025173664093018, 3174930.908723831176758, -4.366709113121033 ] } },
{ "type": "Feature", "properties": { "name": "Soil 1", "Layer": "Plantable_Layers" }, "geometry": { "type": "Point", "coordinates": [ 466052.784366607666016, 3174951.754013776779175, -4.412920236587524 ] } }
]
}
